CCSDS_OMM_VERS = 2.0
CREATION_DATE  = 
ORIGINATOR     = 

OBJECT_NAME    = BOTAN
OBJECT_ID      = 1998-067XP
CENTER_NAME    = EARTH
REF_FRAME      = TEME
TIME_SYSTEM    = UTC
MEAN_ELEMENT_THEORY = SGP/SGP4

EPOCH          = 2025-11-05T22:00:24.823008
MEAN_MOTION    = 15.54763636
ECCENTRICITY   = .0004862
INCLINATION    = 51.6321
RA_OF_ASC_NODE = 324.1537
ARG_OF_PERICENTER = 26.7714
MEAN_ANOMALY   = 333.3527

EPHEMERIS_TYPE = 0
CLASSIFICATION_TYPE = U
NORAD_CAT_ID   = 65942
ELEMENT_SET_NO = 999
REV_AT_EPOCH   = 412
BSTAR          = .1239078E-2
MEAN_MOTION_DOT = .84394E-3
MEAN_MOTION_DDOT = 0

CCSDS_OMM_VERS = 2.0
CREATION_DATE  = 
ORIGINATOR     = 

OBJECT_NAME    = E-KAGAKU-1
OBJECT_ID      = 1998-067XQ
CENTER_NAME    = EARTH
REF_FRAME      = TEME
TIME_SYSTEM    = UTC
MEAN_ELEMENT_THEORY = SGP/SGP4

EPOCH          = 2025-11-05T11:23:48.792192
MEAN_MOTION    = 15.53691300
ECCENTRICITY   = .00043857
INCLINATION    = 51.6326
RA_OF_ASC_NODE = 326.4510
ARG_OF_PERICENTER = 13.9907
MEAN_ANOMALY   = 346.1204

EPHEMERIS_TYPE = 0
CLASSIFICATION_TYPE = U
NORAD_CAT_ID   = 65943
ELEMENT_SET_NO = 999
REV_AT_EPOCH   = 405
BSTAR          = .85729517E-3
MEAN_MOTION_DOT = .55785E-3
MEAN_MOTION_DDOT = 0

CCSDS_OMM_VERS = 2.0
CREATION_DATE  = 
ORIGINATOR     = 

OBJECT_NAME    = 2025-226D
OBJECT_ID      = 2025-226D
CENTER_NAME    = EARTH
REF_FRAME      = TEME
TIME_SYSTEM    = UTC
MEAN_ELEMENT_THEORY = SGP/SGP4

EPOCH          = 2025-11-05T19:02:11.796576
MEAN_MOTION    = 15.46021463
ECCENTRICITY   = .00198451
INCLINATION    = 97.6552
RA_OF_ASC_NODE = 24.5274
ARG_OF_PERICENTER = 275.9925
MEAN_ANOMALY   = 83.9062

EPHEMERIS_TYPE = 0
CLASSIFICATION_TYPE = U
NORAD_CAT_ID   = 65944
ELEMENT_SET_NO = 999
REV_AT_EPOCH   = 390
BSTAR          = .25051864E-1
MEAN_MOTION_DOT = .1366207E-1
MEAN_MOTION_DDOT = 0

CCSDS_OMM_VERS = 2.0
CREATION_DATE  = 
ORIGINATOR     = 

OBJECT_NAME    = SHIYAN-31
OBJECT_ID      = 2025-227A
CENTER_NAME    = EARTH
REF_FRAME      = TEME
TIME_SYSTEM    = UTC
MEAN_ELEMENT_THEORY = SGP/SGP4

EPOCH          = 2025-11-05T22:59:52.199520
MEAN_MOTION    = 15.20435333
ECCENTRICITY   = .00115433
INCLINATION    = 80.0049
RA_OF_ASC_NODE = 70.7800
ARG_OF_PERICENTER = 190.7038
MEAN_ANOMALY   = 169.3945

EPHEMERIS_TYPE = 0
CLASSIFICATION_TYPE = U
NORAD_CAT_ID   = 65945
ELEMENT_SET_NO = 999
REV_AT_EPOCH   = 358
BSTAR          = .57924022E-3
MEAN_MOTION_DOT = .12682E-3
MEAN_MOTION_DDOT = 0

CCSDS_OMM_VERS = 2.0
CREATION_DATE  = 
ORIGINATOR     = 

OBJECT_NAME    = CZ-2D R/B
OBJECT_ID      = 2025-227B
CENTER_NAME    = EARTH
REF_FRAME      = TEME
TIME_SYSTEM    = UTC
MEAN_ELEMENT_THEORY = SGP/SGP4

EPOCH          = 2025-11-05T21:58:29.750304
MEAN_MOTION    = 15.27527064
ECCENTRICITY   = .00212993
INCLINATION    = 80.1557
RA_OF_ASC_NODE = 71.1526
ARG_OF_PERICENTER = 317.7131
MEAN_ANOMALY   = 42.2457

EPHEMERIS_TYPE = 0
CLASSIFICATION_TYPE = U
NORAD_CAT_ID   = 65946
ELEMENT_SET_NO = 999
REV_AT_EPOCH   = 359
BSTAR          = .42123825E-3
MEAN_MOTION_DOT = .11441E-3
MEAN_MOTION_DDOT = 0

CCSDS_OMM_VERS = 2.0
CREATION_DATE  = 
ORIGINATOR     = 

OBJECT_NAME    = KUIPER-00101
OBJECT_ID      = 2025-228A
CENTER_NAME    = EARTH
REF_FRAME      = TEME
TIME_SYSTEM    = UTC
MEAN_ELEMENT_THEORY = SGP/SGP4

EPOCH          = 2025-11-05T22:28:12.605664
MEAN_MOTION    = 15.34922423
ECCENTRICITY   = .00056382
INCLINATION    = 51.8790
RA_OF_ASC_NODE = 197.8803
ARG_OF_PERICENTER = 216.0739
MEAN_ANOMALY   = 143.9867

EPHEMERIS_TYPE = 0
CLASSIFICATION_TYPE = U
NORAD_CAT_ID   = 65947
ELEMENT_SET_NO = 999
REV_AT_EPOCH   = 476
BSTAR          = .47416451E-3
MEAN_MOTION_DOT = .15964E-3
MEAN_MOTION_DDOT = 0

CCSDS_OMM_VERS = 2.0
CREATION_DATE  = 
ORIGINATOR     = 

OBJECT_NAME    = KUIPER-00113
OBJECT_ID      = 2025-228B
CENTER_NAME    = EARTH
REF_FRAME      = TEME
TIME_SYSTEM    = UTC
MEAN_ELEMENT_THEORY = SGP/SGP4

EPOCH          = 2025-11-05T22:22:43.023360
MEAN_MOTION    = 15.35178907
ECCENTRICITY   = .00061277
INCLINATION    = 51.8792
RA_OF_ASC_NODE = 197.8586
ARG_OF_PERICENTER = 211.7885
MEAN_ANOMALY   = 148.2732

EPHEMERIS_TYPE = 0
CLASSIFICATION_TYPE = U
NORAD_CAT_ID   = 65948
ELEMENT_SET_NO = 999
REV_AT_EPOCH   = 476
BSTAR          = .48880326E-3
MEAN_MOTION_DOT = .16609E-3
MEAN_MOTION_DDOT = 0

CCSDS_OMM_VERS = 2.0
CREATION_DATE  = 
ORIGINATOR     = 

OBJECT_NAME    = KUIPER-00117
OBJECT_ID      = 2025-228C
CENTER_NAME    = EARTH
REF_FRAME      = TEME
TIME_SYSTEM    = UTC
MEAN_ELEMENT_THEORY = SGP/SGP4

EPOCH          = 2025-11-05T22:23:38.452416
MEAN_MOTION    = 15.35133614
ECCENTRICITY   = .0005957
INCLINATION    = 51.8793
RA_OF_ASC_NODE = 197.8636
ARG_OF_PERICENTER = 212.2219
MEAN_ANOMALY   = 147.8404

EPHEMERIS_TYPE = 0
CLASSIFICATION_TYPE = U
NORAD_CAT_ID   = 65949
ELEMENT_SET_NO = 999
REV_AT_EPOCH   = 476
BSTAR          = .52068581E-3
MEAN_MOTION_DOT = .17694E-3
MEAN_MOTION_DDOT = 0

CCSDS_OMM_VERS = 2.0
CREATION_DATE  = 
ORIGINATOR     = 

OBJECT_NAME    = KUIPER-00121
OBJECT_ID      = 2025-228D
CENTER_NAME    = EARTH
REF_FRAME      = TEME
TIME_SYSTEM    = UTC
MEAN_ELEMENT_THEORY = SGP/SGP4

EPOCH          = 2025-11-05T22:36:29.264832
MEAN_MOTION    = 15.34551248
ECCENTRICITY   = .0005396
INCLINATION    = 51.8806
RA_OF_ASC_NODE = 197.9239
ARG_OF_PERICENTER = 231.4666
MEAN_ANOMALY   = 128.5836

EPHEMERIS_TYPE = 0
CLASSIFICATION_TYPE = U
NORAD_CAT_ID   = 65950
ELEMENT_SET_NO = 999
REV_AT_EPOCH   = 476
BSTAR          = .54047626E-3
MEAN_MOTION_DOT = .18037E-3
MEAN_MOTION_DDOT = 0

CCSDS_OMM_VERS = 2.0
CREATION_DATE  = 
ORIGINATOR     = 

OBJECT_NAME    = KUIPER-00122
OBJECT_ID      = 2025-228E
CENTER_NAME    = EARTH
REF_FRAME      = TEME
TIME_SYSTEM    = UTC
MEAN_ELEMENT_THEORY = SGP/SGP4

EPOCH          = 2025-11-05T22:00:01.999584
MEAN_MOTION    = 15.29224563
ECCENTRICITY   = .00071977
INCLINATION    = 51.8825
RA_OF_ASC_NODE = 198.2005
ARG_OF_PERICENTER = 245.3419
MEAN_ANOMALY   = 264.7629

EPHEMERIS_TYPE = 0
CLASSIFICATION_TYPE = U
NORAD_CAT_ID   = 65951
ELEMENT_SET_NO = 999
REV_AT_EPOCH   = 338
BSTAR          = -.18600332E-3
MEAN_MOTION_DOT = -.5711E-4
MEAN_MOTION_DDOT = 0

CCSDS_OMM_VERS = 2.0
CREATION_DATE  = 
ORIGINATOR     = 

OBJECT_NAME    = KUIPER-00123
OBJECT_ID      = 2025-228F
CENTER_NAME    = EARTH
REF_FRAME      = TEME
TIME_SYSTEM    = UTC
MEAN_ELEMENT_THEORY = SGP/SGP4

EPOCH          = 2025-11-05T22:00:01.999584
MEAN_MOTION    = 15.28433253
ECCENTRICITY   = .00051765
INCLINATION    = 51.8825
RA_OF_ASC_NODE = 198.1742
ARG_OF_PERICENTER = 246.7588
MEAN_ANOMALY   = 257.4238

EPHEMERIS_TYPE = 0
CLASSIFICATION_TYPE = U
NORAD_CAT_ID   = 65952
ELEMENT_SET_NO = 999
REV_AT_EPOCH   = 168
BSTAR          = -.21599071E-1
MEAN_MOTION_DOT = -.56936E-2
MEAN_MOTION_DDOT = 0

CCSDS_OMM_VERS = 2.0
CREATION_DATE  = 
ORIGINATOR     = 

OBJECT_NAME    = KUIPER-00124
OBJECT_ID      = 2025-228G
CENTER_NAME    = EARTH
REF_FRAME      = TEME
TIME_SYSTEM    = UTC
MEAN_ELEMENT_THEORY = SGP/SGP4

EPOCH          = 2025-11-05T22:40:12.398880
MEAN_MOTION    = 15.34367108
ECCENTRICITY   = .0005341
INCLINATION    = 51.8803
RA_OF_ASC_NODE = 197.9381
ARG_OF_PERICENTER = 241.5265
MEAN_ANOMALY   = 118.5183

EPHEMERIS_TYPE = 0
CLASSIFICATION_TYPE = U
NORAD_CAT_ID   = 65953
ELEMENT_SET_NO = 999
REV_AT_EPOCH   = 476
BSTAR          = .60512705E-3
MEAN_MOTION_DOT = .20126E-3
MEAN_MOTION_DDOT = 0

